TDRS 3                  
1 19548U 88091B   22260.16646840 -.00000301  00000+0  00000+0 0  9993
2 19548  13.6489 350.5959 0034924 326.5098  49.9276  1.00279273111664
HST                     
1 20580U 90037B   22260.39539122  .00002387  00000+0  12908-3 0  9992
2 20580  28.4698 279.4451 0002259 309.5271 180.2023 15.10879464580139
TDRS 5                  
1 21639U 91054B   22260.56140677  .00000082  00000+0  00000+0 0  9996
2 21639  14.2311   3.9190 0022090   2.1268  24.9759  1.00267788113997
TDRS 6                  
1 22314U 93003B   22260.19117309 -.00000298  00000+0  00000+0 0  9998
2 22314  14.1374   7.1716 0011069 130.8130 240.8648  1.00280366108680
TDRS 7                  
1 23613U 95035B   22259.81200021 -.00000204  00000+0  00000+0 0  9996
2 23613  13.9436 357.8705 0026076  59.9217 314.8495  1.00278269 99526
ISS (ZARYA)             
1 25544U 98067A   22260.66718333  .00018514  00000+0  32992-3 0  9995
2 25544  51.6434 238.4174 0002496 263.1284 269.9793 15.50145541359521
LANDSAT 7               
1 25682U 99020A   22260.55442703  .00000305  00000+0  72995-4 0  9998
2 25682  97.9707 305.1133 0001378 100.9508 259.1857 14.59801439246005
TERRA                   
1 25994U 99068A   22260.56672260  .00000263  00000+0  68184-4 0  9998
2 25994  98.1297 330.3420 0001167  83.1009  21.5720 14.57154258209918
TDRS 8                  
1 26388U 00034A   22260.43321600 -.00000239  00000+0  00000+0 0  9998
2 26388  10.5104  41.9013 0017972 346.1724 213.5210  1.00276018 81458
TIMED                   
1 26998U 01055B   22260.57482639  .00000694  00000+0  78182-4 0  9999
2 26998  74.0705  96.1033 0001947 287.1258  72.9709 14.88790540126712
TDRS 9                  
1 27389U 02011A   22260.43759919 -.00000292  00000+0  00000+0 0  9994
2 27389   9.2120  59.9609 0022105 297.5525  94.1014  1.00273054 76721
AQUA                    
1 27424U 02022A   22260.58597016  .00000582  00000+0  13849-3 0  9990
2 27424  98.2522 201.6278 0001114  52.7951 121.1591 14.57386489 83603
TDRS 10                 
1 27566U 02055A   22260.55911417  .00000084  00000+0  00000+0 0  9993
2 27566   8.3682  49.4302 0005231 352.6813 344.5409  1.00269736 72503
SORCE                   
1 27651U 03004A   22260.55927070  .00001428  00000+0  15859-3 0  9990
2 27651  39.9958  63.1261 0022245  37.7930 322.4417 14.90110848 66819
AURA                    
1 28376U 04026A   22260.51337614  .00000587  00000+0  14040-3 0  9991
2 28376  98.2142 202.5462 0001284  78.6002 281.5341 14.57097628966636
SWIFT                   
1 28485U 04047A   22260.53892346  .00003956  00000+0  22750-3 0  9995
2 28485  20.5582  23.7163 0010787  28.3865 331.7156 15.06892178977453
THEMIS A                
1 30580U 07004A   22260.05688237 -.00000632  00000+0  23696-1 0  9996
2 30580  13.5382 336.0145 8375984 184.3825 152.7493  0.87836675 53938
THEMIS D                
1 30797U 07004D   22260.49349753 -.00000635  00000+0  00000+0 0  9996
2 30797   9.3345 325.0214 8332754 198.4960 302.4732  0.87838899 29044
THEMIS E                
1 30798U 07004E   22260.54805025 -.00000657  00000+0  00000+0 0  9996
2 30798  10.3045 339.0082 8323054 186.5554 309.7637  0.87842416 53885
AIM                     
1 31304U 07015A   22260.53214681  .00008797  00000+0  42489-3 0  9996
2 31304  97.8510 183.2315 0006586  68.2516 291.9417 15.18886309845165
FGRST (GLAST)           
1 33053U 08029A   22260.08620251  .00001940  00000+0  91872-4 0  9993
2 33053  25.5819 262.2403 0012111 161.0534 199.0453 15.12405823787588
WISE                    
1 36119U 09071A   22260.36387330  .00005833  00000+0  17632-3 0  9992
2 36119  97.2335 292.9806 0002108  30.8538 329.2829 15.34598382709598
TDRS 11                 
1 39070U 13004A   22260.55390043  .00000075  00000+0  00000+0 0  9998
2 39070   2.8552 348.7092 0005397  82.7598 309.9755  1.00273197 32978
TDRS 12                 
1 39504U 14004A   22260.47926462 -.00000274  00000+0  00000+0 0  9994
2 39504   3.7870 348.9121 0003741 162.5734 336.4433  1.00266325 30553
GPM-CORE                
1 39574U 14009C   22260.48571071  .00009980  00000+0  14770-3 0  9994
2 39574  65.0002 235.0693 0010143 269.6480  90.3504 15.55734807485929
MMS 1                   
1 40482U 15011A   22259.01264705 -.00002151  00000+0  00000+0 0  9999
2 40482  30.8853  98.0670 8781952  60.5138 359.1595  0.28408799 13569
MMS 2                   
1 40483U 15011B   22259.65929503 -.00002180  00000+0  00000+0 0  9996
2 40483  30.8771  98.0193 8784426  60.5658  65.2571  0.28405358 13629
MMS 3                   
1 40484U 15011C   22259.67318392 -.00002180  00000+0  00000+0 0  9997
2 40484  30.8820  98.0141 8783400  60.5581  66.7215  0.28408903 13534
MMS 4                   
1 40485U 15011D   22256.63776727 -.00001928  00000+0  00000+0 0  9990
2 40485  30.8862  98.1801 8778836  60.3840 116.2519  0.28430718 13502
TDRS 13                 
1 42915U 17047A   22260.41342153 -.00000104  00000+0  00000+0 0  9999
2 42915   4.3519 334.3416 0016764 125.8334  33.5339  1.00272807 18629
JPSS-1                  
1 43013U 17073A   22260.55795564  .00000057  00000+0  47821-4 0  9994
2 43013  98.7200 197.6861 0001400 106.0204 254.1126 14.19543433250291
